[{"OBJECT_NAME":"BRO-11","OBJECT_ID":"2023-174J","EPOCH":"2026-03-09T23:01:09.890400","MEAN_MOTION":15.26267731,"ECCENTRICITY":0.00104518,"INCLINATION":97.3961,"RA_OF_ASC_NODE":146.7679,"ARG_OF_PERICENTER":189.9892,"MEAN_ANOMALY":170.1141,"EPHEMERIS_TYPE":0,"CLASSIFICATION_TYPE":"U","NORAD_CAT_ID":58264,"ELEMENT_SET_NO":999,"REV_AT_EPOCH":12961,"BSTAR":0.00032296323,"MEAN_MOTION_DOT":8.313e-5,"MEAN_MOTION_DDOT":0},{"OBJECT_NAME":"STARLINK-36214","OBJECT_ID":"2025-299AD","EPOCH":"2026-03-09T07:23:56.259456","MEAN_MOTION":15.28417408,"ECCENTRICITY":9.681e-5,"INCLINATION":42.9986,"RA_OF_ASC_NODE":171.5101,"ARG_OF_PERICENTER":223.19,"MEAN_ANOMALY":136.8876,"EPHEMERIS_TYPE":0,"CLASSIFICATION_TYPE":"U","NORAD_CAT_ID":67129,"ELEMENT_SET_NO":999,"REV_AT_EPOCH":1305,"BSTAR":0.0011008835,"MEAN_MOTION_DOT":0.00030946,"MEAN_MOTION_DDOT":0}]
